{
  "type": "FeatureCollection",
  "features": [
    {
      "type": "Feature",
      "properties": {
        "norad_id": 33860,
        "name": "IRIDIUM 33 DEB",
        "group": "iridium-33-debris",
        "lat": -84.3766124315423,
        "lon": -8.279626923498023,
        "alt_km": 680.3401238800061,
        "timestamp": "2025-12-02T17:49:12.414021+00:00",
        "meta_object_name": "IRIDIUM 33 DEB",
        "meta_object_id": "1997-051AD",
        "meta_epoch": "2025-12-02T10:04:20.166240",
        "meta_mean_motion": 14.67141398,
        "meta_eccentricity": 0.0008703,
        "meta_inclination": 86.3853,
        "meta_ra_of_asc_node": 31.805,
        "meta_arg_of_pericenter": 31.5096,
        "meta_mean_anomaly": 338.928,
        "meta_ephemeris_type": 0,
        "meta_classification_type": "U",
        "meta_norad_cat_id": 33860,
        "meta_element_set_no": 999,
        "meta_rev_at_epoch": 88571,
        "meta_bstar": 0.0015472,
        "meta_mean_motion_dot": 8.725e-05,
        "meta_mean_motion_ddot": 0,
        "tle_line1": "1 33860U 97051AD  25336.41967785  .00008725  00000+0  15472-2 0  9990",
        "tle_line2": "2 33860  86.3853  31.8050 0008703  31.5096 338.9280 14.67141398885710"
      },
      "geometry": {
        "type": "Point",
        "coordinates": [
          -8.279626923498023,
          -84.3766124315423
        ]
      }
    },
    {
      "type": "Feature",
      "properties": {
        "norad_id": 33862,
        "name": "IRIDIUM 33 DEB",
        "group": "iridium-33-debris",
        "lat": -55.25830469335821,
        "lon": -132.86931336626975,
        "alt_km": 696.5508602006266,
        "timestamp": "2025-12-02T17:49:12.414032+00:00",
        "meta_object_name": "IRIDIUM 33 DEB",
        "meta_object_id": "1997-051AF",
        "meta_epoch": "2025-12-02T12:19:10.661376",
        "meta_mean_motion": 14.69195209,
        "meta_eccentricity": 0.0054081,
        "meta_inclination": 86.4104,
        "meta_ra_of_asc_node": 42.0383,
        "meta_arg_of_pericenter": 103.3059,
        "meta_mean_anomaly": 0.1809,
        "meta_ephemeris_type": 0,
        "meta_classification_type": "U",
        "meta_norad_cat_id": 33862,
        "meta_element_set_no": 999,
        "meta_rev_at_epoch": 88673,
        "meta_bstar": 0.0016584,
        "meta_mean_motion_dot": 0.00010012,
        "meta_mean_motion_ddot": 0,
        "tle_line1": "1 33862U 97051AF  25336.51331784  .00010012  00000+0  16584-2 0  9994",
        "tle_line2": "2 33862  86.4104  42.0383 0054081 103.3059   0.1809 14.69195209886732"
      },
      "geometry": {
        "type": "Point",
        "coordinates": [
          -132.86931336626975,
          -55.25830469335821
        ]
      }
    },
    {
      "type": "Feature",
      "properties": {
        "norad_id": 33866,
        "name": "IRIDIUM 33 DEB",
        "group": "iridium-33-debris",
        "lat": 82.67159807742195,
        "lon": 127.47709304002564,
        "alt_km": 826.9393230336555,
        "timestamp": "2025-12-02T17:49:12.414044+00:00",
        "meta_object_name": "IRIDIUM 33 DEB",
        "meta_object_id": "1997-051AK",
        "meta_epoch": "2025-12-02T09:16:49.286784",
        "meta_mean_motion": 14.25214151,
        "meta_eccentricity": 0.0113553,
        "meta_inclination": 86.2996,
        "meta_ra_of_asc_node": 97.4154,
        "meta_arg_of_pericenter": 194.4354,
        "meta_mean_anomaly": 225.9718,
        "meta_ephemeris_type": 0,
        "meta_classification_type": "U",
        "meta_norad_cat_id": 33866,
        "meta_element_set_no": 999,
        "meta_rev_at_epoch": 86663,
        "meta_bstar": 0.00084931,
        "meta_mean_motion_dot": 2.153e-05,
        "meta_mean_motion_ddot": 0,
        "tle_line1": "1 33866U 97051AK  25336.38668156  .00002153  00000+0  84931-3 0  9998",
        "tle_line2": "2 33866  86.2996  97.4154 0113553 194.4354 225.9718 14.25214151866635"
      },
      "geometry": {
        "type": "Point",
        "coordinates": [
          127.47709304002564,
          82.67159807742195
        ]
      }
    },
    {
      "type": "Feature",
      "properties": {
        "norad_id": 33867,
        "name": "IRIDIUM 33 DEB",
        "group": "iridium-33-debris",
        "lat": -35.53271897339458,
        "lon": -7.363249997487889,
        "alt_km": 419.7854487782697,
        "timestamp": "2025-12-02T17:49:12.414056+00:00",
        "meta_object_name": "IRIDIUM 33 DEB",
        "meta_object_id": "1997-051AL",
        "meta_epoch": "2025-12-02T11:47:15.629568",
        "meta_mean_motion": 15.52958648,
        "meta_eccentricity": 0.0011935,
        "meta_inclination": 86.3628,
        "meta_ra_of_asc_node": 355.3682,
        "meta_arg_of_pericenter": 101.685,
        "meta_mean_anomaly": 258.5751,
        "meta_ephemeris_type": 0,
        "meta_classification_type": "U",
        "meta_norad_cat_id": 33867,
        "meta_element_set_no": 999,
        "meta_rev_at_epoch": 89351,
        "meta_bstar": 0.0067424,
        "meta_mean_motion_dot": 0.00443536,
        "meta_mean_motion_ddot": 0,
        "tle_line1": "1 33867U 97051AL  25336.49115312  .00443536  00000+0  67424-2 0  9993",
        "tle_line2": "2 33867  86.3628 355.3682 0011935 101.6850 258.5751 15.52958648893516"
      },
      "geometry": {
        "type": "Point",
        "coordinates": [
          -7.363249997487889,
          -35.53271897339458
        ]
      }
    },
    {
      "type": "Feature",
      "properties": {
        "norad_id": 33870,
        "name": "IRIDIUM 33 DEB",
        "group": "iridium-33-debris",
        "lat": 15.215960347084463,
        "lon": -118.44259473972754,
        "alt_km": 730.5033644531131,
        "timestamp": "2025-12-02T17:49:12.414067+00:00",
        "meta_object_name": "IRIDIUM 33 DEB",
        "meta_object_id": "1997-051AP",
        "meta_epoch": "2025-12-02T07:23:19.616352",
        "meta_mean_motion": 14.45752988,
        "meta_eccentricity": 0.0020375,
        "meta_inclination": 86.3756,
        "meta_ra_of_asc_node": 62.7314,
        "meta_arg_of_pericenter": 212.9656,
        "meta_mean_anomaly": 211.117,
        "meta_ephemeris_type": 0,
        "meta_classification_type": "U",
        "meta_norad_cat_id": 33870,
        "meta_element_set_no": 999,
        "meta_rev_at_epoch": 87986,
        "meta_bstar": 0.0011193,
        "meta_mean_motion_dot": 3.994e-05,
        "meta_mean_motion_ddot": 0,
        "tle_line1": "1 33870U 97051AP  25336.30786593  .00003994  00000+0  11193-2 0  9994",
        "tle_line2": "2 33870  86.3756  62.7314 0020375 212.9656 211.1170 14.45752988879863"
      },
      "geometry": {
        "type": "Point",
        "coordinates": [
          -118.44259473972754,
          15.215960347084463
        ]
      }
    },
    {
      "type": "Feature",
      "properties": {
        "norad_id": 33881,
        "name": "IRIDIUM 33 DEB",
        "group": "iridium-33-debris",
        "lat": 11.432488502143919,
        "lon": 111.81713389207829,
        "alt_km": 748.4058843382672,
        "timestamp": "2025-12-02T17:49:12.414077+00:00",
        "meta_object_name": "IRIDIUM 33 DEB",
        "meta_object_id": "1997-051BA",
        "meta_epoch": "2025-12-02T09:46:20.565408",
        "meta_mean_motion": 14.56267621,
        "meta_eccentricity": 0.0061095,
        "meta_inclination": 86.3873,
        "meta_ra_of_asc_node": 111.2307,
        "meta_arg_of_pericenter": 208.1493,
        "meta_mean_anomaly": 206.4157,
        "meta_ephemeris_type": 0,
        "meta_classification_type": "U",
        "meta_norad_cat_id": 33881,
        "meta_element_set_no": 999,
        "meta_rev_at_epoch": 87350,
        "meta_bstar": 0.0022979,
        "meta_mean_motion_dot": 0.00010454,
        "meta_mean_motion_ddot": 0,
        "tle_line1": "1 33881U 97051BA  25336.40718247  .00010454  00000+0  22979-2 0  9991",
        "tle_line2": "2 33881  86.3873 111.2307 0061095 208.1493 206.4157 14.56267621873501"
      },
      "geometry": {
        "type": "Point",
        "coordinates": [
          111.81713389207829,
          11.432488502143919
        ]
      }
    },
    {
      "type": "Feature",
      "properties": {
        "norad_id": 33884,
        "name": "IRIDIUM 33 DEB",
        "group": "iridium-33-debris",
        "lat": -71.07121804877134,
        "lon": 3.6633441596721936,
        "alt_km": 643.4633007566999,
        "timestamp": "2025-12-02T17:49:12.414089+00:00",
        "meta_object_name": "IRIDIUM 33 DEB",
        "meta_object_id": "1997-051BD",
        "meta_epoch": "2025-12-02T08:27:11.464128",
        "meta_mean_motion": 14.77111151,
        "meta_eccentricity": 0.0010777,
        "meta_inclination": 86.3702,
        "meta_ra_of_asc_node": 14.5066,
        "meta_arg_of_pericenter": 1.915,
        "meta_mean_anomaly": 12.7931,
        "meta_ephemeris_type": 0,
        "meta_classification_type": "U",
        "meta_norad_cat_id": 33884,
        "meta_element_set_no": 999,
        "meta_rev_at_epoch": 88694,
        "meta_bstar": 0.001496,
        "meta_mean_motion_dot": 0.00010608,
        "meta_mean_motion_ddot": 0,
        "tle_line1": "1 33884U 97051BD  25336.35221602  .00010608  00000+0  14960-2 0  9994",
        "tle_line2": "2 33884  86.3702  14.5066 0010777   1.9150  12.7931 14.77111151886941"
      },
      "geometry": {
        "type": "Point",
        "coordinates": [
          3.6633441596721936,
          -71.07121804877134
        ]
      }
    }
  ]
}